full_name,a,e,i,om,w,q,ad,per_y,data_arc,condition_code,n_obs_used,n_del_obs_used,n_dop_obs_used,H
"154394 (2003 AC30)",2.423647813776267,.1663503281138065,2.768079689778978,99.30947443008792,341.9421234515364,2.020473204722275,2.826822422830258,3.77322297158888,7025,0,549,,,16.2
"154398 (2003 AL40)",2.337090973572223,.1144275087089049,5.498102155925515,176.340021848178,292.8191890640532,2.069663475840284,2.604518471304162,3.5729063200986,8707,0,407,,,16.3
"154404 (2003 AU56)",2.373689155216018,.1363648597179677,3.110235879923083,330.3558583773849,160.1860915767303,2.050001366550924,2.697376943881111,3.65716008116585,6033,0,359,,,16.4
"154409 (2003 AN75)",2.36583844784895,.1653436728878018,10.43947891147647,357.4053758778113,108.7005176119579,1.974662029422428,2.757014866275471,3.63903162871637,7044,0,347,,,16.3
"154503 (2003 FQ35)",2.594315627857904,.1545506606977427,2.991006853376208,1.283385303583704,21.50503425179635,2.193362433513986,2.995268822201822,4.1787118046346,5884,0,589,,,15.7
"154589 (2003 MX2)",2.289795124740519,.4587291977315182,7.18375258417942,58.69100916672102,300.5942251625796,1.239399244198759,3.34019100528228,3.46499922503753,6227,0,504,,,16.6
"154595 (2003 OZ)",2.294666589842065,.2555678095926792,23.57650841788943,211.9419325526263,138.3194752473686,1.708223675730626,2.881109503953504,3.47606261482601,6223,0,715,,,15.9
"154693 (2004 HR44)",2.207379822998148,.07159388963679617,5.391089937948712,5.573086194201133,272.4122634544785,2.049344915563928,2.365414730432368,3.27962210528065,6329,0,446,,,16.3
"154718 (2004 LG18)",2.320311063316868,.1846336240929412,25.89898161743202,320.6099338986731,188.7826514055943,1.891903622673728,2.748718503960007,3.53449619454879,5184,0,228,,,15.7
"155035 (2005 QV129)",2.311932124620858,.1852516075059953,3.130286718760549,61.23398424770366,324.2503541292729,1.883642982090093,2.740221267151623,3.51536821525912,14322,0,189,,,17.0
"155082 (2005 SF131)",2.586654194235372,.1931646370541539,11.77396448951175,341.0865325061485,42.31565452860769,2.087004075621292,3.086304312849453,4.16021485991973,5325,0,354,,,15.7
"155104 (2005 SO225)",2.61859494684361,.1426462855614946,14.23220351893454,34.72772416195097,57.74674784190037,2.245062104286269,2.99212778940095,4.23750955490605,9115,0,427,,,15.3
"155173 (2005 US216)",2.57527557923326,.2087148281955018,3.579309618765167,62.97167175216197,314.490298246232,2.037777379157518,3.112773779309001,4.13279407863834,8810,0,547,,,16.0
"155189 (2005 UN355)",2.605286715434452,.1477487538817344,15.67125890581969,37.55205405406589,320.1443803795987,2.220358849724375,2.990214581144528,4.20524680696752,5714,0,360,,,15.1
"155287 (2005 XK1)",2.1141449717257,.2687435205070147,2.343626363347802,166.8779367256784,178.4046016807855,1.545982209161933,2.682307734289468,3.07404590869282,15773,0,739,,,16.9
"155345 (2007 AR14)",2.243670107636254,.1073217350888651,5.639221902404894,128.0229436730195,338.4434421701062,2.00287553871771,2.484464676554797,3.36083123720427,7912,0,320,,,16.9
"155359 (6292 P-L)",2.412507976192335,.1122807122401782,6.864772983139387,358.535906254087,34.12879437460614,2.141629862340349,2.683386090044321,3.74723853122215,20940,0,383,,,16.2
"155369 (1981 EH15)",2.390749840751055,.1590403655900425,4.620250365174771,219.9659574129383,248.5469445033175,2.010524112043671,2.770975569458438,3.69665912610737,13512,0,472,,,16.2
"155388 (1994 AR10)",2.556244896462924,.2007016656366655,3.480378533986752,355.9710648926391,52.5967004986418,2.04320228796759,3.069287504958259,4.08706824651196,8845,0,723,,,15.5
"155406 (1995 VS9)",2.237894122968556,.03708928350655146,2.316862882335251,21.66177489410354,160.393698250768,2.15489223338413,2.320896012552982,3.34786167615545,7803,0,278,,,17.5
"155410 (1996 CE2)",2.34592764368689,.1801625539720642,5.198211963599719,96.30530308007039,67.1587036373077,1.923279327966593,2.768575959407186,3.59318949724649,7669,0,213,,,17.0
"155412 (1996 FO10)",2.333666807728766,.1049578128384955,3.097235372634157,133.0219669391884,307.8936050087441,2.088730243695761,2.578603371761771,3.565056984142,7651,0,370,,,16.8
"155417 (1996 RC7)",2.625496553417004,.1937088643192127,7.284238843848896,352.4406208475341,39.40436779449685,2.116914597780589,3.134078509053419,4.25427325031342,7216,0,250,,,16.4
"155577 (1999 XT135)",2.234154798520669,.1188801068202014,4.609156005720191,225.364658865549,287.2641512765132,1.968558237419667,2.499751359621672,3.33947420822362,6340,0,307,,,17.0
"155584 (2000 AF157)",2.14015723323097,.05504559750028674,2.022211056557793,331.0963819630882,109.80300131,2.022350999583211,2.257963466878729,3.13095426824742,7597,0,1025,,,15.9
"155586 (2000 AU182)",2.203480068438111,.09589535076454801,6.298031559855449,216.702815566334,354.4913113498736,1.992176574372548,2.414783562503674,3.27093483456513,7917,0,464,,,16.3
"155604 (2000 DP20)",2.23041397679537,.03763185234507806,4.046504339363461,299.7906590937263,165.4880044294159,2.146479367352208,2.314348586238532,3.33109040220416,6298,0,358,,,16.7
"155608 (2000 DN75)",2.2350213539248,.08645424084402764,5.00869497964614,149.1392441328787,8.61621809489924,2.041794279501041,2.42824842834856,3.34141730546037,6290,0,336,,,16.8
"155612 (2000 DW109)",2.288610649989764,.09512940591298298,1.965322520436828,227.5896726337544,261.9968896423317,2.070896478490112,2.506324821489416,3.46231098893069,6158,0,165,,,17.6
"155618 (2000 EJ75)",2.262454961804076,.2392587207222589,23.44235313542174,189.3756869108649,305.369015607531,1.721142881951106,2.803767041657047,3.40312668211043,6303,0,638,,,15.7
"155622 (2000 EE145)",2.263834146989561,.1159574270808448,5.812760505960849,207.6353409987977,273.4732382082703,2.001325763966892,2.526342530012229,3.4062389587322,6235,0,552,,,16.3
"155623 (2000 EY149)",2.284456402156385,.1046094203974535,6.628457539163772,88.24626031825809,24.57668742590273,2.045480742003553,2.523432062309216,3.45288817456877,6235,0,316,,,16.7
"155626 (2000 FX14)",2.260357234984079,.2528590725188738,23.37303470990647,33.63543532430474,94.95229884138141,1.688805400984679,2.831909068983479,3.39839475912389,6297,0,467,,,16.0
"155646 (2000 GT57)",2.273895184702017,.0928748924530199,4.719250111932078,218.9882668527544,294.8169860018103,2.062707413973377,2.485082955430656,3.42897141923083,20640,0,350,,,17.0
"155651 (2000 GO98)",2.271010563052541,.1688884940379488,5.691062248212015,226.9331704307652,15.41671504108985,1.887463009114323,2.654558116990759,3.42244859380424,6254,0,392,,,16.5
"155662 (2000 HE7)",2.297455950076775,.08308546328422278,2.665206519528019,26.7905677791551,129.2921390973956,2.106570758089552,2.488341142063998,3.48240271027854,6167,0,246,,,17.5
"155730 (2000 RQ64)",2.617584022322409,.1679166079344862,12.7054804527867,207.7728733746379,224.7089961638283,2.178048192310522,3.057119852334297,4.23505591721223,6357,0,545,,,15.4
"155754 (2000 SB118)",2.688425923539389,.182635291172243,8.753540303003239,28.05073067159135,32.59664209782736,2.197424472198766,3.179427374880011,4.40813934026539,8989,0,370,,,15.8
"155764 (2000 SS178)",2.74813881966255,.190063600382519,14.02500795615838,14.88287150289854,2.693037216557546,2.225817661246519,3.270459978078581,4.55581628471779,6140,0,220,,,15.5
"155922 (2001 PT5)",2.15822522616389,.2078003782111743,6.430981890266589,114.6338340205674,146.3292583458641,1.709745207902136,2.606705244425643,3.17068683149938,7534,0,404,,,16.6
"155923 (2001 PB14)",2.189011140732908,.1541370457638915,5.502439305942848,160.7192807673717,102.3973473061599,1.851603430356092,2.526418851109725,3.23877038939515,7415,0,449,,,16.2
"155924 (2001 PG25)",2.16113767356569,.1783326198727501,4.085551773599385,199.969793035347,89.20314314057312,1.77573633033302,2.546539016798359,3.17710708820235,6920,0,393,,,16.7
"155952 (2001 QU91)",2.151120928320772,.1443783441646987,2.757411448312992,10.37274190819855,247.6579497593342,1.840545650591789,2.461696206049754,3.15504414774294,8663,0,598,,,16.5
"155966 (2001 QF205)",2.199929851407219,.1645490070737555,6.127260653020881,203.9799816433526,34.24194772737377,1.837933578726246,2.561926124088191,3.26303289119439,5822,0,291,,,16.5
"155967 (2001 QA215)",2.412554918397972,.207963150533606,1.135479880342006,120.8645225780891,298.1548102220221,1.910832396732583,2.914277440063362,3.7473479015325,6059,0,620,,,16.1
"155988 (2001 QJ260)",2.214888619498017,.184228147516783,5.399714971148272,232.9206835596515,20.11465304600339,1.806843792171892,2.622933446824142,3.29637065846342,6358,0,363,,,16.3
"155998 (2001 RQ21)",2.238435467811575,.1170079201574004,1.337993543123366,141.1142509588238,136.5276412874168,1.976520789316385,2.500350146306765,3.34907651730804,5749,0,329,,,16.9
"156001 (2001 RC30)",2.445903221395218,.1990058431803251,2.236600484898862,196.9051326137192,201.0346230982004,1.959154188483989,2.932652254306447,3.8253141400723,6007,0,352,,,16.6
"156005 (2001 RD45)",2.532051586325122,.1282051398767253,6.045053305609684,106.9743480556611,315.9317238294109,2.207429558525225,2.856673614125018,4.02918331130638,7417,0,696,,,15.6
"156012 (2001 RV78)",2.549702233125466,.3023603430915875,6.362619354803154,45.90945565726163,345.3712192039178,1.778773391136263,3.320631075114668,4.07138712341188,6917,0,712,,,15.9
"156031 (2001 RX139)",2.311716505494377,.1137008464928463,10.65312444126419,8.007752304242675,160.2990587555091,2.048872381968182,2.574560629020572,3.51487644285208,5679,0,368,,,16.3
"156040 (2001 SQ6)",2.375712241067092,.138316602797605,3.577005908606499,172.6401689908157,273.2824070871337,2.047111794658007,2.704312687476177,3.6618365517915,9046,0,184,,,17.1
"156056 (2001 SN56)",2.472835673977869,.1129808367468621,6.247917769564662,69.84732568841721,17.80989209493636,2.193452630394358,2.752218717561379,3.88866998825863,5972,0,717,,,15.4
"156090 (2001 SF195)",2.449603288930539,.176257954087077,2.058369789436671,120.4752140065105,289.3078689701256,2.017841224898667,2.881365352962411,3.83399760231947,6091,0,281,,,16.6
